[{"OBJECT_NAME":"ONEWEB-0333","OBJECT_ID":"2021-083P","EPOCH":"2025-10-13T05:57:57.308544","MEAN_MOTION":13.13469515,"ECCENTRICITY":0.00017417,"INCLINATION":87.9034,"RA_OF_ASC_NODE":9.3321,"ARG_OF_PERICENTER":102.9037,"MEAN_ANOMALY":257.2287,"EPHEMERIS_TYPE":0,"CLASSIFICATION_TYPE":"U","NORAD_CAT_ID":49199,"ELEMENT_SET_NO":999,"REV_AT_EPOCH":19849,"BSTAR":-0.0001648727,"MEAN_MOTION_DOT":-4.7e-7,"MEAN_MOTION_DDOT":0},{"OBJECT_NAME":"ONEWEB-0334","OBJECT_ID":"2021-083Q","EPOCH":"2025-10-13T04:12:33.711552","MEAN_MOTION":13.20769583,"ECCENTRICITY":0.00018471,"INCLINATION":87.9218,"RA_OF_ASC_NODE":323.7255,"ARG_OF_PERICENTER":127.2118,"MEAN_ANOMALY":232.9184,"EPHEMERIS_TYPE":0,"CLASSIFICATION_TYPE":"U","NORAD_CAT_ID":49200,"ELEMENT_SET_NO":999,"REV_AT_EPOCH":20418,"BSTAR":7.3132385e-5,"MEAN_MOTION_DOT":4.3e-7,"MEAN_MOTION_DDOT":0},{"OBJECT_NAME":"ONEWEB-0335","OBJECT_ID":"2021-083R","EPOCH":"2025-10-13T05:50:38.463072","MEAN_MOTION":13.13469598,"ECCENTRICITY":0.00017862,"INCLINATION":87.9039,"RA_OF_ASC_NODE":9.3208,"ARG_OF_PERICENTER":94.4343,"MEAN_ANOMALY":265.699,"EPHEMERIS_TYPE":0,"CLASSIFICATION_TYPE":"U","NORAD_CAT_ID":49201,"ELEMENT_SET_NO":999,"REV_AT_EPOCH":19850,"BSTAR":0.00012885897,"MEAN_MOTION_DOT":6.0e-7,"MEAN_MOTION_DDOT":0},{"OBJECT_NAME":"ONEWEB-0336","OBJECT_ID":"2021-083S","EPOCH":"2025-10-13T05:09:12.322944","MEAN_MOTION":13.1347013,"ECCENTRICITY":0.00019417,"INCLINATION":87.904,"RA_OF_ASC_NODE":9.3213,"ARG_OF_PERICENTER":87.9196,"MEAN_ANOMALY":272.2155,"EPHEMERIS_TYPE":0,"CLASSIFICATION_TYPE":"U","NORAD_CAT_ID":49202,"ELEMENT_SET_NO":999,"REV_AT_EPOCH":19849,"BSTAR":0.00088209732,"MEAN_MOTION_DOT":3.35e-6,"MEAN_MOTION_DDOT":0},{"OBJECT_NAME":"ONEWEB-0337","OBJECT_ID":"2021-083T","EPOCH":"2025-10-13T07:13:20.136864","MEAN_MOTION":13.13469704,"ECCENTRICITY":0.0002004,"INCLINATION":87.905,"RA_OF_ASC_NODE":9.3113,"ARG_OF_PERICENTER":96.9132,"MEAN_ANOMALY":263.2225,"EPHEMERIS_TYPE":0,"CLASSIFICATION_TYPE":"U","NORAD_CAT_ID":49203,"ELEMENT_SET_NO":999,"REV_AT_EPOCH":19850,"BSTAR":0.00092471992,"MEAN_MOTION_DOT":3.5e-6,"MEAN_MOTION_DDOT":0},{"OBJECT_NAME":"ONEWEB-0338","OBJECT_ID":"2021-083U","EPOCH":"2025-10-13T03:36:13.715136","MEAN_MOTION":13.20771472,"ECCENTRICITY":0.0001895,"INCLINATION":87.9222,"RA_OF_ASC_NODE":323.7312,"ARG_OF_PERICENTER":105.3074,"MEAN_ANOMALY":254.8269,"EPHEMERIS_TYPE":0,"CLASSIFICATION_TYPE":"U","NORAD_CAT_ID":49204,"ELEMENT_SET_NO":999,"REV_AT_EPOCH":20420,"BSTAR":-1.2784349e-5,"MEAN_MOTION_DOT":8.0e-8,"MEAN_MOTION_DDOT":0},{"OBJECT_NAME":"ONEWEB-0339","OBJECT_ID":"2021-083V","EPOCH":"2025-10-13T07:25:42.674016","MEAN_MOTION":13.13470493,"ECCENTRICITY":0.00019543,"INCLINATION":87.9046,"RA_OF_ASC_NODE":9.2926,"ARG_OF_PERICENTER":104.6425,"MEAN_ANOMALY":255.4921,"EPHEMERIS_TYPE":0,"CLASSIFICATION_TYPE":"U","NORAD_CAT_ID":49205,"ELEMENT_SET_NO":999,"REV_AT_EPOCH":19848,"BSTAR":0.00086092058,"MEAN_MOTION_DOT":3.27e-6,"MEAN_MOTION_DDOT":0},{"OBJECT_NAME":"ONEWEB-0340","OBJECT_ID":"2021-083W","EPOCH":"2025-10-13T07:23:20.464800","MEAN_MOTION":13.18687121,"ECCENTRICITY":0.00017448,"INCLINATION":87.9233,"RA_OF_ASC_NODE":24.4768,"ARG_OF_PERICENTER":98.0077,"MEAN_ANOMALY":262.1253,"EPHEMERIS_TYPE":0,"CLASSIFICATION_TYPE":"U","NORAD_CAT_ID":49206,"ELEMENT_SET_NO":999,"REV_AT_EPOCH":19743,"BSTAR":0.00024674589,"MEAN_MOTION_DOT":1.1e-6,"MEAN_MOTION_DDOT":0},{"OBJECT_NAME":"ONEWEB-0341","OBJECT_ID":"2021-083X","EPOCH":"2025-10-13T07:32:50.114688","MEAN_MOTION":13.18687242,"ECCENTRICITY":0.00023154,"INCLINATION":87.9228,"RA_OF_ASC_NODE":24.4881,"ARG_OF_PERICENTER":97.9132,"MEAN_ANOMALY":262.2263,"EPHEMERIS_TYPE":0,"CLASSIFICATION_TYPE":"U","NORAD_CAT_ID":49207,"ELEMENT_SET_NO":999,"REV_AT_EPOCH":19745,"BSTAR":0.00011155383,"MEAN_MOTION_DOT":5.7e-7,"MEAN_MOTION_DDOT":0},{"OBJECT_NAME":"ONEWEB-0342","OBJECT_ID":"2021-083Y","EPOCH":"2025-10-13T03:45:17.550432","MEAN_MOTION":13.20769454,"ECCENTRICITY":0.00019253,"INCLINATION":87.9219,"RA_OF_ASC_NODE":323.6981,"ARG_OF_PERICENTER":99.3101,"MEAN_ANOMALY":260.825,"EPHEMERIS_TYPE":0,"CLASSIFICATION_TYPE":"U","NORAD_CAT_ID":49208,"ELEMENT_SET_NO":999,"REV_AT_EPOCH":20417,"BSTAR":0.00010424547,"MEAN_MOTION_DOT":5.5e-7,"MEAN_MOTION_DDOT":0},{"OBJECT_NAME":"ONEWEB-0343","OBJECT_ID":"2021-083Z","EPOCH":"2025-10-13T07:41:18.009312","MEAN_MOTION":13.17224387,"ECCENTRICITY":0.00030661,"INCLINATION":87.9235,"RA_OF_ASC_NODE":24.4767,"ARG_OF_PERICENTER":97.4771,"MEAN_ANOMALY":262.6709,"EPHEMERIS_TYPE":0,"CLASSIFICATION_TYPE":"U","NORAD_CAT_ID":49209,"ELEMENT_SET_NO":999,"REV_AT_EPOCH":19750,"BSTAR":0.036285914,"MEAN_MOTION_DOT":0.00014035,"MEAN_MOTION_DDOT":0},{"OBJECT_NAME":"ONEWEB-0344","OBJECT_ID":"2021-083AA","EPOCH":"2025-10-13T05:28:41.860992","MEAN_MOTION":13.13471286,"ECCENTRICITY":0.00022087,"INCLINATION":87.9041,"RA_OF_ASC_NODE":9.3457,"ARG_OF_PERICENTER":96.7232,"MEAN_ANOMALY":263.4149,"EPHEMERIS_TYPE":0,"CLASSIFICATION_TYPE":"U","NORAD_CAT_ID":49210,"ELEMENT_SET_NO":999,"REV_AT_EPOCH":19847,"BSTAR":0.000880627,"MEAN_MOTION_DOT":3.34e-6,"MEAN_MOTION_DDOT":0},{"OBJECT_NAME":"ONEWEB-0345","OBJECT_ID":"2021-083AB","EPOCH":"2025-10-13T05:16:31.604736","MEAN_MOTION":13.1347064,"ECCENTRICITY":0.00022163,"INCLINATION":87.9044,"RA_OF_ASC_NODE":9.3023,"ARG_OF_PERICENTER":98.8058,"MEAN_ANOMALY":261.3323,"EPHEMERIS_TYPE":0,"CLASSIFICATION_TYPE":"U","NORAD_CAT_ID":49211,"ELEMENT_SET_NO":999,"REV_AT_EPOCH":19848,"BSTAR":0.00084499305,"MEAN_MOTION_DOT":3.21e-6,"MEAN_MOTION_DDOT":0},{"OBJECT_NAME":"ONEWEB-0346","OBJECT_ID":"2021-083AC","EPOCH":"2025-10-13T07:39:57.201120","MEAN_MOTION":13.18684127,"ECCENTRICITY":0.00015846,"INCLINATION":87.9227,"RA_OF_ASC_NODE":24.4949,"ARG_OF_PERICENTER":80.4365,"MEAN_ANOMALY":279.6946,"EPHEMERIS_TYPE":0,"CLASSIFICATION_TYPE":"U","NORAD_CAT_ID":49212,"ELEMENT_SET_NO":999,"REV_AT_EPOCH":19744,"BSTAR":4.763045e-6,"MEAN_MOTION_DOT":1.5e-7,"MEAN_MOTION_DDOT":0},{"OBJECT_NAME":"ONEWEB-0348","OBJECT_ID":"2021-083AD","EPOCH":"2025-10-13T03:31:39.722592","MEAN_MOTION":13.20769394,"ECCENTRICITY":0.00023041,"INCLINATION":87.9216,"RA_OF_ASC_NODE":323.7112,"ARG_OF_PERICENTER":82.4403,"MEAN_ANOMALY":277.6992,"EPHEMERIS_TYPE":0,"CLASSIFICATION_TYPE":"U","NORAD_CAT_ID":49213,"ELEMENT_SET_NO":999,"REV_AT_EPOCH":20420,"BSTAR":-8.21127e-7,"MEAN_MOTION_DOT":1.3e-7,"MEAN_MOTION_DDOT":0},{"OBJECT_NAME":"ONEWEB-0350","OBJECT_ID":"2021-083AE","EPOCH":"2025-10-13T05:29:55.033152","MEAN_MOTION":13.13471285,"ECCENTRICITY":0.0002098,"INCLINATION":87.9056,"RA_OF_ASC_NODE":9.2958,"ARG_OF_PERICENTER":97.0152,"MEAN_ANOMALY":263.1216,"EPHEMERIS_TYPE":0,"CLASSIFICATION_TYPE":"U","NORAD_CAT_ID":49214,"ELEMENT_SET_NO":999,"REV_AT_EPOCH":19851,"BSTAR":0.00082569636,"MEAN_MOTION_DOT":3.14e-6,"MEAN_MOTION_DDOT":0},{"OBJECT_NAME":"ONEWEB-0351","OBJECT_ID":"2021-083AF","EPOCH":"2025-10-13T03:22:23.367936","MEAN_MOTION":13.20772399,"ECCENTRICITY":0.00024255,"INCLINATION":87.922,"RA_OF_ASC_NODE":323.7027,"ARG_OF_PERICENTER":116.3537,"MEAN_ANOMALY":243.7846,"EPHEMERIS_TYPE":0,"CLASSIFICATION_TYPE":"U","NORAD_CAT_ID":49215,"ELEMENT_SET_NO":999,"REV_AT_EPOCH":20416,"BSTAR":0.00022374639,"MEAN_MOTION_DOT":1.04e-6,"MEAN_MOTION_DDOT":0}]
