ONEWEB-0333             
1 49199U 21083P   25286.24857996 -.00000047  00000+0 -16487-3 0  9990
2 49199  87.9034   9.3321 0001741 102.9037 257.2287 13.13469515198490
ONEWEB-0334             
1 49200U 21083Q   25286.17539018  .00000043  00000+0  73132-4 0  9992
2 49200  87.9218 323.7255 0001847 127.2118 232.9184 13.20769583204189
ONEWEB-0335             
1 49201U 21083R   25286.24350073  .00000060  00000+0  12886-3 0  9990
2 49201  87.9039   9.3208 0001786  94.4343 265.6990 13.13469598198504
ONEWEB-0336             
1 49202U 21083S   25286.21472596  .00000335  00000+0  88210-3 0  9992
2 49202  87.9040   9.3213 0001941  87.9196 272.2155 13.13470130198498
ONEWEB-0337             
1 49203U 21083T   25286.30092751  .00000350  00000+0  92472-3 0  9996
2 49203  87.9050   9.3113 0002004  96.9132 263.2225 13.13469704198505
ONEWEB-0338             
1 49204U 21083U   25286.15015874  .00000008  00000+0 -12784-4 0  9991
2 49204  87.9222 323.7312 0001895 105.3074 254.8269 13.20771472204203
ONEWEB-0339             
1 49205U 21083V   25286.30952169  .00000327  00000+0  86092-3 0  9991
2 49205  87.9046   9.2926 0001954 104.6425 255.4921 13.13470493198488
ONEWEB-0340             
1 49206U 21083W   25286.30787575  .00000110  00000+0  24675-3 0  9998
2 49206  87.9233  24.4768 0001744  98.0077 262.1253 13.18687121197436
ONEWEB-0341             
1 49207U 21083X   25286.31446892  .00000057  00000+0  11155-3 0  9993
2 49207  87.9228  24.4881 0002315  97.9132 262.2263 13.18687242197450
ONEWEB-0342             
1 49208U 21083Y   25286.15645313  .00000055  00000+0  10425-3 0  9992
2 49208  87.9219 323.6981 0001925  99.3101 260.8250 13.20769454204171
ONEWEB-0343             
1 49209U 21083Z   25286.32034733  .00014035  00000+0  36286-1 0  9994
2 49209  87.9235  24.4767 0003066  97.4771 262.6709 13.17224387197502
ONEWEB-0344             
1 49210U 21083AA  25286.22826228  .00000334  00000+0  88063-3 0  9992
2 49210  87.9041   9.3457 0002208  96.7232 263.4149 13.13471286198470
ONEWEB-0345             
1 49211U 21083AB  25286.21981024  .00000321  00000+0  84499-3 0  9993
2 49211  87.9044   9.3023 0002216  98.8058 261.3323 13.13470640198486
ONEWEB-0346             
1 49212U 21083AC  25286.31941205  .00000015  00000+0  47630-5 0  9990
2 49212  87.9227  24.4949 0001584  80.4365 279.6946 13.18684127197440
ONEWEB-0348             
1 49213U 21083AD  25286.14698753  .00000013  00000+0 -82113-6 0  9994
2 49213  87.9216 323.7112 0002304  82.4403 277.6992 13.20769394204207
ONEWEB-0350             
1 49214U 21083AE  25286.22910918  .00000314  00000+0  82570-3 0  9991
2 49214  87.9056   9.2958 0002098  97.0152 263.1216 13.13471285198513
ONEWEB-0351             
1 49215U 21083AF  25286.14054824  .00000104  00000+0  22375-3 0  9992
2 49215  87.9220 323.7027 0002425 116.3537 243.7846 13.20772399204164
